[{"OBJECT_NAME":"LUDI TANCE 1-01B (L-SAR 01B)","OBJECT_ID":"2022-018A","EPOCH":"2026-03-07T13:37:23.300256","MEAN_MOTION":14.88408066,"ECCENTRICITY":0.0001606,"INCLINATION":97.8122,"RA_OF_ASC_NODE":75.4265,"ARG_OF_PERICENTER":91.5383,"MEAN_ANOMALY":268.6018,"EPHEMERIS_TYPE":0,"CLASSIFICATION_TYPE":"U","NORAD_CAT_ID":51822,"ELEMENT_SET_NO":999,"REV_AT_EPOCH":21859,"BSTAR":3.0068e-5,"MEAN_MOTION_DOT":2.24e-6,"MEAN_MOTION_DDOT":0},{"OBJECT_NAME":"CZ-6A DEB","OBJECT_ID":"2024-140BM","EPOCH":"2026-03-09T15:29:08.555424","MEAN_MOTION":14.58449197,"ECCENTRICITY":0.0134003,"INCLINATION":88.991,"RA_OF_ASC_NODE":281.8497,"ARG_OF_PERICENTER":263.363,"MEAN_ANOMALY":95.2314,"EPHEMERIS_TYPE":0,"CLASSIFICATION_TYPE":"U","NORAD_CAT_ID":60660,"ELEMENT_SET_NO":999,"REV_AT_EPOCH":8401,"BSTAR":0.0008379,"MEAN_MOTION_DOT":4.417e-5,"MEAN_MOTION_DDOT":0}]
